{"type":"FeatureCollection","features":[{"type":"Feature","properties":{"risk":"MRGL"},"geometry":{"type":"Polygon","coordinates":[[[22.060546875,61.14323525084058],[27.333984375000004,60.45721779774397],[29.794921875000004,58.17070248348609],[31.289062500000004,54.87660665410869],[29.267578125000004,52.74959372674117],[29.531250000000004,50.51342652633956],[30.937500000000004,46.6795944656402],[31.552734375000004,44.402391829093915],[33.00292968750001,42.97250158602597],[35.90332031250001,42.147114459221015],[38.3203125,38.34165619279595],[38.38623046875001,35.35321610123823],[35.17822265625001,32.1570124860701],[27.751464843750004,32.41706632846282],[19.445800781250004,35.137879119634185],[16.457519531250004,35.639441068973944],[10.151367187500002,37.49229399862877],[1.1425781250000002,37.16031654673677],[-2.2192382812500004,35.44277092585766],[-6.525878906250001,35.460669951495305],[-9.821777343750002,36.73888412439431],[-10.480957031250002,42.956422511073335],[-9.074707031250002,44.55916341529182],[-3.8232421875000004,44.15068115978094],[-1.8896484375000002,45.321254361171476],[-3.4277343750000004,46.95026224218562],[-6.613769531250001,47.47266286861342],[-10.458984375000002,50.94458443495011],[-11.535644531250002,54.02067955159995],[-9.118652343750002,56.30434864830834],[-3.8452148437500004,56.81290751870022],[-1.0107421875000002,56.6199765284502],[2.6147460937500004,53.839563678833606],[4.372558593750001,53.86548550842127],[6.943359375000001,55.89995614406812],[5.097656250000001,58.424729753759124],[5.097656250000001,60.326947742998414],[9.667968750000002,60.973107109199425],[14.721679687500002,61.20679804263029],[19.072265625000004,61.2913492826376]]]}},{"type":"Feature","properties":{"risk":"MRGL"},"geometry":{"type":"Polygon","coordinates":[[[38.58398437500001,69.30279408245205],[30.673828125000004,69.05285807666016],[28.344726562500004,67.23806155909902],[27.290039062500004,65.62202261510642],[30.190429687500004,63.80189351770543],[33.61816406250001,60.43554230669233],[33.26660156250001,54.7246201949245],[42.01171875000001,49.866316729538674],[48.86718750000001,48.07807894349862],[47.4609375,67.941650035336]]]}},{"type":"Feature","properties":{"risk":"LOW"},"geometry":{"type":"Polygon","coordinates":[[[-6.888427734375,36.01356058518153],[-7.415771484375001,36.89719446989036],[-6.65771484375,37.52715361723378],[-4.625244140625001,37.70120736474139],[-1.7468261718750002,37.84883250647402],[-0.5932617187500001,38.37611542403604],[0.8349609375000001,39.04478604850143],[2.3291015625000004,39.50404070558415],[4.438476562500001,39.52099229357195],[6.262207031250001,38.805470223177466],[6.635742187500001,38.42777351132902],[6.679687500000001,37.96152331396614],[6.306152343750001,37.57941251343841],[0.8569335937500001,37.43997405227057],[0.29663085937500006,37.02886944696474],[-1.3073730468750002,36.56260003738548],[-3.197021484375,36.04021586880114]]]}},{"type":"Feature","properties":{"risk":"LOW"},"geometry":{"type":"Polygon","coordinates":[[[10.909423828125002,37.97884504049713],[9.689941406250002,38.16047628099622],[8.591308593750002,38.487994609214795],[7.448730468750001,39.01064750994083],[7.185058593750001,39.73253798438173],[6.877441406250001,40.212440718286466],[6.767578125000001,41.3108238809182],[6.229248046875001,42.35042512243457],[6.569824218750001,43.636075155965784],[7.426757812500001,45.058001435398296],[8.745117187500002,46.30140615437332],[10.832519531250002,46.7248003746672],[14.062500000000002,47.2195681123155],[16.259765625000004,49.03786794532644],[18.940429687500004,50.792047064406866],[20.302734375000004,52.95525697845468],[20.654296875000004,54.470037612805754],[20.434570312500004,56.58369172128337],[22.5,58.309488840677645],[26.103515625000004,58.859223547066584],[28.564453125000004,57.68066002977237],[30.454101562500004,55.15376626853556],[30.058593750000004,54.76267040025495],[29.179687500000004,54.584796743678744],[28.586425781250004,54.67383096593114],[28.388671875000004,54.97761367069628],[27.619628906250004,55.27911529201564],[26.9384765625,55.178867663282006],[26.433105468750004,55.02802211299252],[26.3232421875,54.80068486732236],[26.433105468750004,54.43171285946844],[27.312011718750004,53.68369534495075],[27.443847656250004,52.74959372674117],[27.39990234375,51.699799849741936],[27.158203125000004,50.75035931136963],[26.828613281250004,50.30337575356313],[26.718750000000004,49.89463439573421],[27.09228515625,49.06666839558117],[27.949218750000004,48.40003249610685],[29.399414062500004,44.74673324024681],[31.728515625000004,42.8115217450979],[34.76074218750001,42.19596877629178],[35.28808593750001,41.64007838467894],[35.02441406250001,41.376808565702355],[34.05761718750001,40.979898069620155],[31.508789062500004,40.27952566881291],[30.410156250000004,40.27952566881291],[28.564453125000004,39.977120098439634],[26.015625,40.212440718286466],[24.697265625000004,39.57182223734374],[22.1923828125,38.82259097617713],[20.698242187500004,39.095962936305476],[19.379882812500004,38.61687046392973],[18.237304687500004,38.71980474264239],[17.094726562500004,37.85750715625203],[16.523437500000004,36.94989178681327],[15.820312500000002,36.73888412439431],[15.073242187500002,36.5184659896759],[14.304199218750002,36.66841891894786],[13.787841796875002,36.96744946416934],[13.183593750000002,37.274052809979054],[12.777099609375,37.396346133189255],[12.041015625000002,37.622933594900864]]]}},{"type":"Feature","properties":{"risk":"LOW"},"geometry":{"type":"Polygon","coordinates":[[[0.21972656250000003,49.15296965617042],[0.8789062500000001,47.96050238891509],[0.703125,46.86019101567027],[1.1865234375000002,45.42929873257377],[2.4169921875000004,45.27488643704894],[4.526367187500001,45.55252525134013],[6.5478515625,47.100044694025215],[7.910156250000001,49.095452162534826],[6.723632812500001,50.819818262156545],[5.229492187500001,52.26815737376817],[3.6474609375000004,52.496159531097106],[2.39501953125,53.028000167735165],[1.1865234375000002,53.2126121899416],[0.13183593750000003,53.08082737207479],[-0.34057617187500006,52.58302586141648],[-0.6372070312500001,51.984880139916655],[-0.7580566406250001,51.18622962638683],[-0.43945312500000006,50.13466432216696]]]}},{"type":"Feature","properties":{"risk":"LOW"},"geometry":{"type":"Polygon","coordinates":[[[17.622070312500004,56.23113850341279],[16.721191406250004,56.511017504952164],[16.040039062500004,57.326521225217064],[15.512695312500002,57.610107020683905],[15.161132812500002,58.56252272853734],[16.369628906250004,59.72317714492064],[17.622070312500004,60.18523283150752],[18.720703125000004,59.88893689676585],[19.401855468750004,59.65664225341025],[19.335937500000004,58.90464570302001],[19.775390625,58.205449994019915],[19.863281250000004,57.77451753559619],[19.31396484375,56.83695435196053],[18.479003906250004,56.3774187738762]]]}},{"type":"Feature","properties":{"risk":"SLGT"},"geometry":{"type":"Polygon","coordinates":[[[26.03759765625,53.969012350740314],[26.542968750000004,53.57946149373232],[26.499023437500004,53.014783245859235],[26.389160156250004,52.522905940278065],[27.158203125000004,52.22779941887071],[27.180175781250004,51.795027225829145],[27.026367187500004,51.316880504045876],[26.564941406250004,49.89463439573421],[27.224121093750004,48.705462895790575],[27.949218750000004,47.88688085106901],[29.24560546875,44.18220395771566],[30.190429687500004,43.02071359427862],[31.618652343750004,42.27730877423709],[34.27734375000001,42.01665183556825],[34.87060546875001,41.75492216766298],[34.62890625000001,41.59079685105603],[33.83789062500001,41.45919537950706],[32.25585937500001,41.27780646738183],[31.245117187500004,41.07935114946899],[29.685058593750004,40.96330795307353],[27.421875000000004,40.896905775860006],[26.652832031250004,40.83043687764923],[24.279785156250004,40.78054143186033],[23.071289062500004,40.22921818870117],[20.764160156250004,39.58875727696545],[19.533691406250004,39.50404070558415],[17.929687500000004,38.70265930723801],[16.105957031250004,37.33522435930641],[15.249023437500002,36.932330061503144],[14.919433593750002,36.8092847020594],[14.194335937500002,37.125286284966805],[13.0078125,37.73596920859053],[12.282714843750002,37.85750715625203],[11.074218750000002,38.685509760012025],[11.821289062500002,39.825413103424786],[13.447265625000002,41.32732632036624],[14.040527343750002,42.61779143282346],[13.293457031250002,43.91372326852401],[11.689453125000002,44.49650533109348],[10.87646484375,45.24395342262324],[11.447753906250002,45.85941212790755],[12.370605468750002,46.164614496897094],[13.403320312500002,46.11894150610708],[14.633789062500002,45.72152152227956],[15.457763671875002,45.49094569262732],[16.754150390625004,44.902577996288876],[17.248535156250004,44.77013681219717],[17.616577148437504,44.793530904744074],[17.918701171875004,44.883120442385646],[18.088989257812504,45.04635929200553],[18.281250000000004,45.40230699238177],[18.391113281250004,46.87521339672271],[19.335937500000004,49.453842594330744],[21.489257812500004,51.631657349449995],[23.510742187500004,52.77618568896171],[24.455566406250004,53.42262754609996],[25.378417968750004,53.87844040332883]]]}},{"type":"Feature","properties":{"risk":"SLGT"},"geometry":{"type":"Polygon","coordinates":[[[27.180175781250004,57.938183012205315],[26.916503906250004,57.73934950049299],[26.630859375,57.24339368551158],[27.004394531250004,56.956957113368325],[26.499023437500004,56.607885465009254],[25.86181640625,56.15778819063682],[25.224609375000004,55.32914440840507],[24.6533203125,54.7246201949245],[24.9609375,54.39335222384589],[25.576171875,54.41892996865827],[26.235351562500004,55.34164183013326],[26.806640625000004,55.677584411089526],[27.905273437500004,55.83831352210821],[28.388671875000004,55.986091533808384],[28.652343750000004,56.47462805805594],[28.278808593750004,57.26716357153586],[27.817382812500004,57.77451753559619]]]}},{"type":"Feature","properties":{"risk":"LOW"},"geometry":{"type":"Polygon","coordinates":[[[38.3203125,35.35321610123823],[37.13378906250001,34.19817309627726],[35.20019531250001,32.93492866908233],[33.96972656250001,32.509761735919426],[32.12402343750001,32.62087018318113],[30.256347656250004,32.84267363195431],[29.047851562500004,34.05265942137599],[27.795410156250004,35.7643434796672],[28.388671875000004,36.87962060502676],[29.179687500000004,36.89719446989036],[30.124511718750004,36.77409249464195],[31.091308593750004,37.17782559332976],[31.794433593750004,37.125286284966805],[32.43164062500001,36.721273880045004],[33.24462890625001,36.63316209558658],[33.99169921875001,37.020098201368114],[34.87060546875001,37.64903402157866],[36.56250000000001,38.04809106745726],[38.29833984375,38.08268954483802]]]}},{"type":"Feature","properties":{"risk":"SLGT"},"geometry":{"type":"Polygon","coordinates":[[[35.59570312500001,34.17999758688084],[35.09033203125001,33.87041555094183],[33.90380859375001,33.797408767572485],[33.04687500000001,33.88865750124075],[31.552734375000004,34.08906131584996],[30.322265625000004,34.470335121217495],[29.904785156250004,35.42486791930558],[29.948730468750004,35.871246850027966],[30.432128906250004,36.13787471840729],[30.783691406250004,36.73888412439431],[31.794433593750004,36.54494944148322],[32.29980468750001,36.12012758978146],[33.09082031250001,35.94243575255426],[33.79394531250001,36.03133177633189],[35.20019531250001,36.914764288955936],[36.05712890625001,37.474858084971046],[37.00195312500001,37.30027528134433],[37.55126953125001,36.8092847020594],[37.26562500000001,36.01356058518153],[36.60644531250001,35.17380831799959]]]}},{"type":"Feature","properties":{"risk":"ENH"},"geometry":{"type":"Polygon","coordinates":[[[34.56298828125001,34.72355492704221],[35.85937500000001,35.44277092585766],[36.56250000000001,36.65079252503471],[35.74951171875001,36.66841891894786],[35.31005859375001,36.40359962073253],[34.54101562500001,36.049098959065645],[33.88183593750001,35.65729624809628],[33.50830078125001,35.119908570996834],[33.96972656250001,34.75966612466248]]]}},{"type":"Feature","properties":{"risk":"SLGT"},"geometry":{"type":"Polygon","coordinates":[[[6.828002929687501,43.36512572875844],[7.492675781250001,43.18915769654922],[8.223266601562502,43.141078106345866],[8.717651367187502,43.30119623257966],[9.030761718750002,44.11125397357155],[7.888183593750001,44.49258696288604],[7.415771484375001,44.39454219215589],[6.998291015625001,43.909765943908]]]}},{"type":"Feature","properties":{"risk":"ENH"},"geometry":{"type":"Polygon","coordinates":[[[25.070800781250004,53.291489065300226],[24.6533203125,52.84259457223952],[24.147949218750004,52.214338608258224],[24.082031250000004,51.52241608253256],[23.796386718750004,50.958426723359935],[23.40087890625,50.499452103967734],[23.027343750000004,49.993615462541136],[23.115234375,49.33944093715549],[23.5546875,48.4146186174932],[24.4775390625,48.004625021133904],[25.620117187500004,48.16608541901253],[25.664062500000004,49.28214015975995],[25.2685546875,49.724479188712984],[25.290527343750004,50.91688748924508],[25.444335937500004,51.957807388715544],[25.8837890625,52.78947558139889],[25.905761718750004,53.474969999548556],[25.510253906250004,53.48804553605622]]]}},{"type":"Feature","properties":{"risk":"ENH"},"geometry":{"type":"Polygon","coordinates":[[[20.061035156250004,46.46813299215556],[19.687500000000004,48.07807894349862],[20.939941406250004,48.545705491847464],[22.390136718750004,48.28319289548349],[23.752441406250004,47.724544549099676],[25.664062500000004,47.30903424774781],[26.762695312500004,47.2195681123155],[27.24609375,46.33175800051563],[27.773437500000004,45.78284835197676],[27.795410156250004,43.866218006556394],[27.839355468750004,41.95131994679697],[27.597656250000004,41.77131167976407],[26.894531250000004,41.47566020027821],[25.773925781250004,41.86956082699455],[25.11474609375,42.924251753870685],[23.532714843750004,42.90816007196054],[23.334960937500004,42.309815415686664],[22.741699218750004,41.376808565702355],[21.708984375000004,40.74725696280421],[21.511230468750004,40.58058466412764],[20.566406250000004,41.02964338716641],[20.170898437500004,42.391008609205045],[20.588378906250004,44.54350521320822]]]}},{"type":"Feature","properties":{"risk":"ENH"},"geometry":{"type":"Polygon","coordinates":[[[12.4749755859375,38.07836562996712],[13.1671142578125,38.45789034424927],[14.551391601562502,39.036252959636606],[15.908203125000002,39.18117526158749],[16.051025390625004,40.06125658140474],[15.446777343750002,40.834593138080244],[14.606323242187502,41.02135510866602],[13.974609375000002,40.925964939514294],[13.271484375000002,40.44694705960048],[12.562866210937502,39.58875727696545],[12.348632812500002,38.950865400919994],[12.128906250000002,38.52668162061619]]]}},{"type":"Feature","properties":{"risk":"ENH"},"geometry":{"type":"Polygon","coordinates":[[[14.639282226562502,44.6569317328873],[15.556640625000002,43.71950494269109],[16.369628906250004,43.381097587278596],[17.627563476562504,42.90413649491736],[18.500976562500004,42.68243539838623],[19.423828125000004,42.09822241118974],[19.270019531250004,41.705728515237524],[18.786621093750004,41.261291493919884],[18.017578125000004,41.11246878918088],[16.896972656250004,41.44272637767212],[15.292968750000002,42.439674178149446],[14.589843750000002,43.866218006556394],[14.018554687500002,44.398467142258504],[13.985595703125002,44.6569317328873],[14.117431640625002,44.77793589631623],[14.353637695312502,44.80132682904856]]]}},{"type":"Feature","properties":{"risk":"LOW"},"geometry":{"type":"Polygon","coordinates":[[[34.51904296875001,55.25407706707272],[34.91455078125001,57.468589192089354],[35.17822265625001,59.734253447591364],[35.22216796875001,60.88770004207789],[33.94775390625001,61.897577621605016],[32.82714843750001,62.95522304515911],[34.38720703125001,63.528970541102794],[37.13378906250001,64.79284777557432],[39.96826171875001,65.2291018831922],[42.01171875000001,66.17826596326798],[44.3408203125,67.34832460428412],[46.45019531250001,67.51697240955545],[46.99951171875001,67.40748724648756],[47.50488281250001,67.40748724648756],[48.29589843750001,56.9809114245448],[47.43896484375,56.559482483762245],[45.81298828125001,55.89995614406812],[43.33007812500001,55.541064956111036],[40.58349609375001,54.97761367069628],[39.26513671875001,54.813348417419284],[37.24365234375001,54.584796743678744],[35.57373046875001,54.635697306063854],[34.73876953125001,54.87660665410869]]]}},{"type":"Feature","properties":{"risk":"SLGT"},"geometry":{"type":"Polygon","coordinates":[[[35.94726562500001,63.94702456462176],[34.93652343750001,63.568120480921074],[35.02441406250001,63.00513377927512],[36.62841796875001,62.61356210229029],[39.08935546875001,62.67414334669093],[41.06689453125,63.213829705155625],[42.95654296875001,64.88626540914477],[42.31933593750001,66.01801815922045],[41.35253906250001,65.66732958274376],[40.95703125000001,65.4034447883078],[40.27587890625001,65.07213008560697],[39.8583984375,64.86760781632728],[39.2431640625,64.79284777557432],[37.79296875000001,64.80220413595876],[37.08984375000001,64.74601725111455],[37.57324218750001,64.4348920430406],[38.05664062500001,64.19681461100495],[37.48535156250001,64.13936944203154],[37.00195312500001,64.17767943926998],[36.49658203125001,64.07219957867284]]]}},{"type":"Feature","properties":{"risk":"SLGT"},"geometry":{"type":"Polygon","coordinates":[[[42.8466796875,64.11060221954631],[43.505859375,64.26368374017731],[44.51660156250001,64.36843760829052],[46.07666015625001,64.36843760829052],[47.24121093750001,64.22549260465593],[47.30712890625001,62.90522700054292],[47.65869140625001,61.825040379926115],[47.63671875000001,59.489726035537075],[47.74658203125,57.350237477396824],[46.86767578125,56.92099675839107],[45.94482421875,56.668302075770065],[43.85742187500001,56.9449741808516],[43.57177734375001,57.43312382526987],[43.24218750000001,58.19387126497797],[42.51708984375,58.65408464530598],[40.78125000000001,59.130863097255904],[39.66064453125001,59.80063426102869],[39.39697265625001,60.31606836555203],[39.44091796875001,60.80206374467983],[39.61669921875001,61.12201916813026],[39.83642578125,61.312451574838214],[40.31982421875001,61.54364147554998],[40.58349609375001,61.825040379926115],[40.89111328125001,61.949284881013504],[40.93505859375001,62.431074232920935],[40.89111328125001,62.59334083012024],[41.15478515625001,62.83508901142283],[41.17675781250001,63.04500101542012],[41.83593750000001,63.48976680530999],[42.2314453125,63.80189351770543]]]}},{"type":"Feature","properties":{"risk":"ENH"},"geometry":{"type":"Polygon","coordinates":[[[44.82421875000001,57.657157596582984],[44.18701171875001,58.297944045474146],[43.00048828125001,59.355596110016315],[43.28613281250001,60.009970961180386],[44.20898437500001,60.511343283202464],[44.86816406250001,60.45721779774397],[45.3076171875,60.04290359809166],[45.17578125000001,58.96133955528141],[45.43945312500001,58.263287052486035],[45.6591796875,57.9148477670092],[45.43945312500001,57.633639928856965],[45.15380859375001,57.52762173837744]]]}},{"type":"Feature","properties":{"risk":"SLGT"},"geometry":{"type":"Polygon","coordinates":[[[0.29663085937500006,38.38042167460681],[-0.13183593750000003,38.0091482264894],[-0.2032470703125,37.58811876638322],[-0.0054931640625,37.391981943533544],[0.5383300781250001,37.45741810262938],[0.889892578125,37.666429212090605],[1.6918945312500002,37.80544394934274],[2.3345947265625004,37.95286091815649],[3.0761718750000004,38.06106741381201],[3.0706787109375004,38.53527591154413],[2.8619384765625004,38.75408327579141],[2.2631835937500004,38.85682013474361],[1.8786621093750002,38.831149809348744],[0.9832763671875001,38.74123075381228]]]}},{"type":"Feature","properties":{"risk":"SLGT"},"geometry":{"type":"Polygon","coordinates":[[[7.915649414062501,40.81380923056961],[7.415771484375001,40.522150985623796],[7.421264648437501,39.80009595634841],[7.333374023437501,39.58029027440865],[7.503662109375001,39.185433170302126],[7.827758789062501,38.96368010198575],[8.552856445312502,38.81831117374662],[8.898925781250002,38.60828592850559],[9.096679687500002,39.0831721934762],[9.459228515625002,39.53793974517628],[9.277954101562502,40.057052221322024],[9.107666015625002,40.46784549077257],[8.690185546875002,40.763901280945866],[8.278198242187502,40.871987756697415]]]}},{"type":"Feature","properties":{"risk":"SIG"},"geometry":{"type":"Polygon","coordinates":[[[13.557128906250002,39.2832938689385],[14.655761718750002,40.17887331434698],[15.270996093750002,40.979898069620155],[15.270996093750002,41.57436130598913],[14.985351562500002,41.82045509614034],[14.611816406250002,41.88592102814744],[14.348144531250002,41.77131167976407],[14.08447265625,41.59079685105603],[13.952636718750002,41.5579215778042],[13.798828125000002,41.47566020027821],[13.491210937500002,41.1455697310095],[12.810058593750002,40.979898069620155],[12.041015625000002,40.730608477796636],[11.425781250000002,40.56389453066509],[10.78857421875,40.111688665595956],[10.063476562500002,39.65645604812829],[10.239257812500002,38.976492485539424],[11.008300781250002,38.805470223177466],[11.93115234375,38.805470223177466],[12.54638671875,38.82259097617713]]]}},{"type":"Feature","properties":{"risk":"SIG"},"geometry":{"type":"Polygon","coordinates":[[[17.687988281250004,39.50404070558415],[18.380126953125004,39.11727568585598],[18.918457031250004,39.33429742980725],[19.473266601562504,39.635307296586035],[20.137939453125004,39.72831341029745],[20.720214843750004,39.829631721333755],[21.159667968750004,40.01078714046552],[21.29150390625,40.09067983779908],[21.302490234375,40.233411907115055],[21.2640380859375,40.35910267579199],[21.176147460937504,40.421860362045194],[20.297241210937504,40.84290487729676],[19.352416992187504,41.091772220976644],[18.336181640625004,41.281934557995356],[17.814331054687504,41.306697618181886],[17.292480468750004,41.27367811566259],[16.962890625000004,41.12074559016745],[16.836547851562504,40.826280356677124],[16.885986328125004,40.28371627054261],[17.160644531250004,39.93501296038254]]]}}]}