{
  "type": "FeatureCollection",
  "features": [
    {
      "type": "Feature",
      "properties": {
        "risk": "MRGL"
      },
      "geometry": {
        "type": "Polygon",
        "coordinates": [
          [
            [
              18.369140625000004,
              65.87472467098549
            ],
            [
              15.996093750000002,
              65.2198939361321
            ],
            [
              13.710937500000002,
              64.01449619484472
            ],
            [
              11.689453125000002,
              63.35212928507874
            ],
            [
              10.458984375000002,
              61.14323525084058
            ],
            [
              5.449218750000001,
              59.5343180010956
            ],
            [
              3.3398437500000004,
              55.47885346331036
            ],
            [
              4.218750000000001,
              53.330872983017066
            ],
            [
              7.119140625,
              53.12040528310657
            ],
            [
              17.666015625000004,
              57.98480801923985
            ],
            [
              24.78515625,
              61.64816245852389
            ],
            [
              24.257812500000004,
              64.88626540914477
            ]
          ]
        ]
      }
    },
    {
      "type": "Feature",
      "properties": {
        "risk": "MRGL"
      },
      "geometry": {
        "type": "Polygon",
        "coordinates": [
          [
            [
              35.24414062500001,
              67.33986082559097
            ],
            [
              32.87109375000001,
              66.68778386116203
            ],
            [
              31.904296875000004,
              63.194018438087845
            ],
            [
              30.761718750000004,
              62.062733258846514
            ],
            [
              30.146484375000004,
              58.99531118795094
            ],
            [
              28.212890625000004,
              56.80087831233043
            ],
            [
              29.882812500000004,
              52.96187505907603
            ],
            [
              37.88085937500001,
              48.63290858589535
            ],
            [
              44.91210937500001,
              51.39920565355378
            ],
            [
              43.85742187500001,
              67.2720426739952
            ],
            [
              40.60546875000001,
              66.44310650816469
            ]
          ]
        ]
      }
    },
    {
      "type": "Feature",
      "properties": {
        "risk": "MRGL"
      },
      "geometry": {
        "type": "Polygon",
        "coordinates": [
          [
            [
              -5.361328125,
              35.9602229692967
            ],
            [
              -6.152343750000001,
              39.027718840211605
            ],
            [
              -7.163085937500001,
              41.44272637767212
            ],
            [
              -9.536132812500002,
              42.21224516288584
            ],
            [
              -9.755859375000002,
              43.628123412124616
            ],
            [
              -6.745605468750001,
              44.29240108529008
            ],
            [
              -3.4716796875000004,
              44.37098696297173
            ],
            [
              -2.1533203125000004,
              44.855868807357275
            ],
            [
              -2.0654296875000004,
              46.01222384063236
            ],
            [
              -5.625,
              48.37084770238366
            ],
            [
              -1.9775390625000002,
              51.16556659836182
            ],
            [
              -0.30761718750000006,
              51.42661449707482
            ],
            [
              5.756835937500001,
              51.72702815704777
            ],
            [
              10.656738281250002,
              52.01193653675363
            ],
            [
              14.414062500000002,
              53.10721669189343
            ],
            [
              17.644042968750004,
              54.80068486732236
            ],
            [
              19.4677734375,
              57.72761921621495
            ],
            [
              20.808105468750004,
              58.25172718316509
            ],
            [
              22.6318359375,
              57.492213666700756
            ],
            [
              26.608886718750004,
              50.28933925329178
            ],
            [
              28.01513671875,
              45.920587344733654
            ],
            [
              28.01513671875,
              42.71473218539458
            ],
            [
              26.696777343750004,
              40.43022363450862
            ],
            [
              28.300781250000004,
              37.68382032669382
            ],
            [
              33.33251953125001,
              39.436192999314095
            ],
            [
              37.52929687500001,
              37.89219554724437
            ],
            [
              34.25537109375001,
              33.46810795527896
            ],
            [
              29.531250000000004,
              36.06686213257888
            ],
            [
              25.993652343750004,
              36.15561783381855
            ],
            [
              23.752441406250004,
              38.30718056188316
            ],
            [
              21.4453125,
              37.84015683604136
            ],
            [
              20.104980468750004,
              36.79169061907076
            ],
            [
              18.171386718750004,
              36.89719446989036
            ],
            [
              16.501464843750004,
              37.97884504049713
            ],
            [
              14.897460937500002,
              38.42777351132902
            ],
            [
              12.282714843750002,
              38.04809106745726
            ],
            [
              8.723144531250002,
              38.03078569382294
            ],
            [
              5.449218750000001,
              37.78808138412046
            ],
            [
              0.39550781250000006,
              36.686041276581925
            ]
          ]
        ]
      }
    },
    {
      "type": "Feature",
      "properties": {
        "risk": "LOW"
      },
      "geometry": {
        "type": "Polygon",
        "coordinates": [
          [
            [
              -0.6591796875000001,
              37.92686760148135
            ],
            [
              -1.6259765625,
              38.58252615935333
            ],
            [
              -1.8017578125000002,
              39.65645604812829
            ],
            [
              -0.21972656250000003,
              41.3108238809182
            ],
            [
              2.39501953125,
              42.391008609205045
            ],
            [
              2.8564453125000004,
              44.88701247981298
            ],
            [
              3.5156250000000004,
              47.69497434186282
            ],
            [
              7.382812500000001,
              48.516604348867475
            ],
            [
              10.019531250000002,
              48.16608541901253
            ],
            [
              13.271484375000002,
              47.2195681123155
            ],
            [
              16.259765625000004,
              48.80686346108519
            ],
            [
              17.308959960937504,
              49.905249238801304
            ],
            [
              17.468261718750004,
              51.385495069223204
            ],
            [
              18.413085937500004,
              52.576349937498875
            ],
            [
              20.061035156250004,
              53.64463782485651
            ],
            [
              21.928710937500004,
              53.839563678833606
            ],
            [
              22.719726562500004,
              52.76289173758374
            ],
            [
              23.73046875,
              50.44351305245807
            ],
            [
              25.400390625,
              47.989921667414194
            ],
            [
              26.279296875000004,
              45.27488643704894
            ],
            [
              25.400390625,
              45.089035564831036
            ],
            [
              23.818359375000004,
              48.574789910928864
            ],
            [
              22.8076171875,
              48.004625021133904
            ],
            [
              23.88427734375,
              44.98034238084973
            ],
            [
              23.444824218750004,
              39.07890809706475
            ],
            [
              18.588867187500004,
              38.496593518947584
            ],
            [
              14.589843750000002,
              38.90813299596705
            ],
            [
              11.513671875000002,
              38.47939467327645
            ],
            [
              5.9326171875,
              38.75408327579141
            ],
            [
              2.79052734375,
              37.75334401310659
            ],
            [
              0.7690429687500001,
              37.63163475580645
            ]
          ]
        ]
      }
    },
    {
      "type": "Feature",
      "properties": {
        "risk": "SLGT"
      },
      "geometry": {
        "type": "Polygon",
        "coordinates": [
          [
            [
              0.8789062500000001,
              38.363195134453846
            ],
            [
              -0.28564453125000006,
              39.58452390500424
            ],
            [
              0.9393310546875001,
              40.967455873296714
            ],
            [
              3.2958984375000004,
              41.046216814520655
            ],
            [
              4.174804687500001,
              40.195659093364654
            ],
            [
              8.437500000000002,
              40.027614437486655
            ],
            [
              8.481445312500002,
              39.21523130910493
            ],
            [
              3.5156250000000004,
              38.976492485539424
            ],
            [
              2.4169921875000004,
              38.41055825094609
            ]
          ]
        ]
      }
    },
    {
      "type": "Feature",
      "properties": {
        "risk": "SIG"
      },
      "geometry": {
        "type": "Polygon",
        "coordinates": [
          [
            [
              0.41748046875000006,
              40.027614437486655
            ],
            [
              0.703125,
              40.84706035607122
            ],
            [
              1.7138671875000002,
              41.902277040963696
            ],
            [
              2.6147460937500004,
              42.42345651793833
            ],
            [
              3.9990234375000004,
              42.73087427928485
            ],
            [
              4.746093750000001,
              42.633958722673164
            ],
            [
              4.855957031250001,
              41.77131167976407
            ],
            [
              4.240722656250001,
              41.11246878918088
            ],
            [
              2.9443359375,
              40.43022363450862
            ],
            [
              0.9448242187500001,
              39.977120098439634
            ]
          ]
        ]
      }
    },
    {
      "type": "Feature",
      "properties": {
        "risk": "SLGT"
      },
      "geometry": {
        "type": "Polygon",
        "coordinates": [
          [
            [
              9.624023437500002,
              40.333983227838104
            ],
            [
              10.211791992187502,
              39.095962936305476
            ],
            [
              11.77734375,
              38.92095542046727
            ],
            [
              13.513183593750002,
              39.13432124527173
            ],
            [
              13.7054443359375,
              39.76210275375139
            ],
            [
              14.260253906250002,
              40.01078714046552
            ],
            [
              14.172363281250002,
              41.27780646738183
            ],
            [
              12.32666015625,
              41.660601243020906
            ],
            [
              11.71142578125,
              41.644183479397455
            ]
          ]
        ]
      }
    },
    {
      "type": "Feature",
      "properties": {
        "risk": "ENH"
      },
      "geometry": {
        "type": "Polygon",
        "coordinates": [
          [
            [
              9.997558593750002,
              40.245991504199026
            ],
            [
              11.046752929687502,
              39.74521015328692
            ],
            [
              12.117919921875002,
              39.76210275375139
            ],
            [
              12.485961914062502,
              40.225024210604964
            ],
            [
              12.606811523437502,
              41.19932314127607
            ],
            [
              11.958618164062502,
              41.21998578493921
            ],
            [
              11.436767578125002,
              40.901057866884024
            ],
            [
              10.909423828125002,
              40.90936126702326
            ]
          ]
        ]
      }
    },
    {
      "type": "Feature",
      "properties": {
        "risk": "SLGT"
      },
      "geometry": {
        "type": "Polygon",
        "coordinates": [
          [
            [
              22.769165039062504,
              49.001843917978555
            ],
            [
              24.0216064453125,
              49.53590423149747
            ],
            [
              23.532714843750004,
              50.548344490674786
            ],
            [
              22.65380859375,
              50.74688365485322
            ],
            [
              21.857299804687504,
              50.17338006352582
            ]
          ]
        ]
      }
    },
    {
      "type": "Feature",
      "properties": {
        "risk": "SLGT"
      },
      "geometry": {
        "type": "Polygon",
        "coordinates": [
          [
            [
              19.640461313256246,
              39.12596255931659
            ],
            [
              21.791381835937504,
              39.0831721934762
            ],
            [
              22.9833984375,
              40.166281254206545
            ],
            [
              23.087768554687504,
              41.934976500546604
            ],
            [
              23.499755859375004,
              42.508552415528634
            ],
            [
              22.719726562500004,
              43.58834891179792
            ],
            [
              22.1923828125,
              45.205263456162385
            ],
            [
              20.808105468750004,
              45.66780526567164
            ],
            [
              20.632324218750004,
              47.53203824675999
            ],
            [
              19.445800781250004,
              48.10743118848039
            ],
            [
              13.359375000000002,
              45.89000815866184
            ],
            [
              12.85400390625,
              44.809121700077355
            ],
            [
              14.479980468750002,
              42.147114459221015
            ],
            [
              17.182617187500004,
              41.934976500546604
            ],
            [
              18.632812500000004,
              41.178653972331674
            ]
          ]
        ]
      }
    },
    {
      "type": "Feature",
      "properties": {
        "risk": "ENH"
      },
      "geometry": {
        "type": "Polygon",
        "coordinates": [
          [
            [
              20.626831054687504,
              43.04881979669318
            ],
            [
              21.90673828125,
              43.24120121425791
            ],
            [
              21.928710937500004,
              44.07969327425713
            ],
            [
              21.5606689453125,
              44.968684437948376
            ],
            [
              20.0830078125,
              45.433153642271414
            ],
            [
              19.198608398437504,
              44.308126684886126
            ]
          ]
        ]
      }
    },
    {
      "type": "Feature",
      "properties": {
        "risk": "ENH"
      },
      "geometry": {
        "type": "Polygon",
        "coordinates": [
          [
            [
              19.423828125000004,
              42.32606244456202
            ],
            [
              16.984863281250004,
              43.54854811091288
            ],
            [
              15.534667968750002,
              45.02695045318546
            ],
            [
              14.304199218750002,
              45.42929873257377
            ],
            [
              14.150390625000002,
              44.4808302785626
            ],
            [
              14.831542968750002,
              43.389081939117496
            ],
            [
              16.127929687500004,
              42.65012181368025
            ],
            [
              18.413085937500004,
              42.032974332441405
            ]
          ]
        ]
      }
    },
    {
      "type": "Feature",
      "properties": {
        "risk": "SIG"
      },
      "geometry": {
        "type": "Polygon",
        "coordinates": [
          [
            [
              14.040527343750002,
              45.98169518512228
            ],
            [
              15.490722656250002,
              45.85941212790755
            ],
            [
              16.413574218750004,
              45.089035564831036
            ],
            [
              18.742675781250004,
              43.004647127794435
            ],
            [
              18.8525390625,
              41.983994270935625
            ],
            [
              17.929687500000004,
              41.95131994679697
            ],
            [
              15.952148437500002,
              42.97250158602597
            ],
            [
              14.39208984375,
              44.449467536006935
            ]
          ]
        ]
      }
    },
    {
      "type": "Feature",
      "properties": {
        "risk": "LOW"
      },
      "geometry": {
        "type": "Polygon",
        "coordinates": [
          [
            [
              30.849609375000004,
              59.80063426102869
            ],
            [
              30.585937500000004,
              53.54030739150022
            ],
            [
              34.27734375000001,
              51.12421275782688
            ],
            [
              38.58398437500001,
              51.6180165487737
            ],
            [
              39.46289062500001,
              52.482780222078226
            ],
            [
              44.56054687500001,
              53.38332836757156
            ],
            [
              43.68164062500001,
              65.33017791526855
            ],
            [
              34.62890625000001,
              65.44000165965537
            ],
            [
              33.39843750000001,
              62.39036943814273
            ]
          ]
        ]
      }
    },
    {
      "type": "Feature",
      "properties": {
        "risk": "SLGT"
      },
      "geometry": {
        "type": "Polygon",
        "coordinates": [
          [
            [
              32.60742187500001,
              56.559482483762245
            ],
            [
              33.39843750000001,
              59.085738569819505
            ],
            [
              41.57226562500001,
              60.54377524118842
            ],
            [
              42.97851562500001,
              59.445075099047166
            ],
            [
              43.06640625000001,
              58.031372421776396
            ],
            [
              42.18750000000001,
              57.37393841871411
            ],
            [
              42.62695312500001,
              56.80087831233043
            ],
            [
              42.62695312500001,
              55.62799595426723
            ],
            [
              38.3203125,
              55.1286490684888
            ],
            [
              34.89257812500001,
              55.7765730186677
            ]
          ]
        ]
      }
    },
    {
      "type": "Feature",
      "properties": {
        "risk": "LOW"
      },
      "geometry": {
        "type": "Polygon",
        "coordinates": [
          [
            [
              29.816894531250004,
              36.8268747428773
            ],
            [
              33.44238281250001,
              38.41055825094609
            ],
            [
              36.60644531250001,
              37.42252593456307
            ],
            [
              34.23339843750001,
              34.08906131584996
            ],
            [
              32.14599609375001,
              35.0659731379842
            ]
          ]
        ]
      }
    },
    {
      "type": "Feature",
      "properties": {
        "risk": "SLGT"
      },
      "geometry": {
        "type": "Polygon",
        "coordinates": [
          [
            [
              33.53027343750001,
              35.15584570226544
            ],
            [
              32.32177734375001,
              35.81781315869664
            ],
            [
              32.16796875000001,
              37.19533058280065
            ],
            [
              33.42041015625001,
              37.00255267215955
            ],
            [
              34.49707031250001,
              37.16031654673677
            ],
            [
              35.61767578125001,
              36.87962060502676
            ],
            [
              35.00244140625001,
              35.889050079360935
            ]
          ]
        ]
      }
    },
    {
      "type": "Feature",
      "properties": {
        "risk": "ENH"
      },
      "geometry": {
        "type": "Polygon",
        "coordinates": [
          [
            [
              34.38720703125001,
              35.81781315869664
            ],
            [
              34.95849609375001,
              36.20882309283712
            ],
            [
              34.87060546875001,
              36.8268747428773
            ],
            [
              34.49707031250001,
              36.98500309285596
            ],
            [
              33.83789062500001,
              36.932330061503144
            ],
            [
              33.53027343750001,
              36.56260003738548
            ],
            [
              33.35449218750001,
              36.12012758978146
            ],
            [
              33.53027343750001,
              35.782170703266075
            ]
          ]
        ]
      }
    }
  ]
}